[{"OBJECT_NAME":"CAPELLA-17 (ACADIA-7)","OBJECT_ID":"2025-135BH","EPOCH":"2026-03-09T21:46:00.782400","MEAN_MOTION":14.90843227,"ECCENTRICITY":0.00046578,"INCLINATION":97.7566,"RA_OF_ASC_NODE":184.0901,"ARG_OF_PERICENTER":330.6991,"MEAN_ANOMALY":29.3965,"EPHEMERIS_TYPE":0,"CLASSIFICATION_TYPE":"U","NORAD_CAT_ID":64583,"ELEMENT_SET_NO":999,"REV_AT_EPOCH":3905,"BSTAR":0.0010665608,"MEAN_MOTION_DOT":0.0001046,"MEAN_MOTION_DDOT":0},{"OBJECT_NAME":"FENGYUN 1C DEB","OBJECT_ID":"1999-025WR","EPOCH":"2026-03-09T02:28:06.081024","MEAN_MOTION":14.64574879,"ECCENTRICITY":0.01347069,"INCLINATION":98.6915,"RA_OF_ASC_NODE":278.0576,"ARG_OF_PERICENTER":81.9787,"MEAN_ANOMALY":39.5905,"EPHEMERIS_TYPE":0,"CLASSIFICATION_TYPE":"U","NORAD_CAT_ID":30232,"ELEMENT_SET_NO":999,"REV_AT_EPOCH":1012,"BSTAR":0.00076747962,"MEAN_MOTION_DOT":4.596e-5,"MEAN_MOTION_DDOT":0}]
